HISPASAT 30W-5          
1 37264U 10070A   24207.30188522 -.00000218  00000+0  00000+0 0  9994
2 37264   0.0147 151.6158 0005697 345.2350 245.3190  1.00270714 46244
KOREASAT 6              
1 37265U 10070B   24207.64139677 -.00000364  00000+0  00000+0 0  9991
2 37265   0.0025 234.1629 0001308 281.2268 135.3300  1.00270208 49839
BEIDOU-2 IGSO-3         
1 37384U 11013A   24208.52021472 -.00000172  00000+0  00000+0 0  9999
2 37384  61.4156  46.7284 0031120 172.6149  16.9367  1.00298183 48734
INTELSAT NEW DAWN       
1 37392U 11016A   24208.51822934  .00000154  00000+0  00000+0 0  9991
2 37392   0.0145 101.9538 0001601  42.3310  19.7632  1.00272751 48593
YAHSAT 1A               
1 37393U 11016B   24206.98382476  .00000099  00000+0  00000+0 0  9991
2 37393   0.0060  17.7054 0003287 110.4529 221.6795  1.00272271 35461
SBIRS GEO-1 (USA 230)   
1 37481U 11019A   24208.45322089 -.00000007  00000+0  00000+0 0  9990
2 37481   3.0699  49.1754 0001552  79.6112  44.6923  1.00272074 48475
TELSTAR 14R             
1 37602U 11021A   24208.39910429 -.00000282  00000+0  00000+0 0  9997
2 37602   0.0307 275.2128 0002037 166.7906 303.2468  1.00271134 48900
GSAT-8                  
1 37605U 11022A   24208.52266750  .00000082  00000+0  00000+0 0  9994
2 37605   0.3378  91.1295 0003191 146.4899 310.3053  1.00272526 46297
ST-2                    
1 37606U 11022B   24208.61651639 -.00000214  00000+0  00000+0 0  9997
2 37606   0.0035 264.3458 0000200 299.8435  50.5449  1.00272532 48355
ZHONGXING-10            
1 37677U 11026A   24207.96126069 -.00000354  00000+0  00000+0 0  9995
2 37677   0.0632 259.3368 0004681 250.5355 250.7646  1.00274846 48063
SES-3                   
1 37748U 11035A   24207.47706763 -.00000103  00000+0  00000+0 0  9997
2 37748   0.0581 282.2650 0002837 204.3983 245.7399  1.00271529 47657
KAZSAT-2                
1 37749U 11035B   24207.46566854 -.00000199  00000+0  00000+0 0  9997
2 37749   0.0217 129.8539 0002344  55.2615  12.6703  1.00269938 46452
BEIDOU-2 IGSO-4         
1 37763U 11038A   24207.87527866  .00000008  00000+0  00000+0 0  9999
2 37763  54.5640 171.8312 0126540 229.0192 310.2188  1.00251544 47712
ASTRA 1N                
1 37775U 11041A   24208.51544462  .00000118  00000+0  00000+0 0  9991
2 37775   0.0542  25.9161 0004258  63.3884  60.1052  1.00271582 37603
BSAT-3C (JCSAT-110R)    
1 37776U 11041B   24208.62684269 -.00000353  00000+0  00000+0 0  9996
2 37776   0.0135  21.0251 0000709 205.9779  53.3819  1.00269318 43553
PAKSAT-1R               
1 37779U 11042A   24208.51927361  .00000152  00000+0  00000+0 0  9997
2 37779   0.0260 155.8499 0002491 302.6111  71.1273  1.00274352 47550
SES-2                   
1 37809U 11049A   24208.49447216 -.00000197  00000+0  00000+0 0  9991
2 37809   0.0396 277.7704 0002608 213.3964 264.5117  1.00271578 47036
ARABSAT-5C              
1 37810U 11049B   24206.74327635  .00000122  00000+0  00000+0 0  9998
2 37810   0.0480 358.3902 0005840 158.1505  73.9947  1.00275026 47109
EUTELSAT 7 WEST A       
1 37816U 11051A   24208.32549368 -.00000062  00000+0  00000+0 0  9996
2 37816   0.0642  28.7371 0004628 116.1816 269.4375  1.00270999 46969
QUETZSAT 1              
1 37826U 11054A   24208.49638667 -.00000243  00000+0  00000+0 0  9990
2 37826   0.0305 304.3790 0002603 188.4747 273.4951  1.00269335 42952
INTELSAT 18 (IS-18)     
1 37834U 11056A   24207.11650686  .00000051  00000+0  00000+0 0  9990
2 37834   0.0182  64.7896 0001901  64.1048  36.3565  1.00272578 46877
EUTELSAT 16A            
1 37836U 11057A   24208.31993657  .00000102  00000+0  00000+0 0  9991
2 37836   0.0669 353.2726 0005500 130.8673 311.5340  1.00269127   405
VIASAT-1                
1 37843U 11059A   24207.53258418 -.00000025  00000+0  00000+0 0  9998
2 37843   0.0193  71.4998 0001987  49.6997 259.1325  1.00266208 47347
ASIASAT 7               
1 37933U 11069A   24208.53265297 -.00000336  00000+0  00000+0 0  9998
2 37933   0.0556 252.7923 0001548 204.3948 144.7510  1.00274237 46537
BEIDOU-2 IGSO-5         
1 37948U 11073A   24208.61627100 -.00000163  00000+0  00000+0 0  9991
2 37948  48.9369 280.0308 0102543 220.6435 121.4744  1.00284498 46201
LUCH-5A                 
1 37951U 11074B   24208.56293605 -.00000055  00000+0  00000+0 0  9999
2 37951   6.9836  84.3593 0004254  46.3942 183.5307  1.00270155 46125
NIGCOMSAT 1R            
1 38014U 11077A   24207.23227635  .00000143  00000+0  00000+0 0  9993
2 38014   0.0483 112.8514 0001101 189.8811 126.7816  1.00270118 46016
FENGYUN 2F              
1 38049U 12002A   24208.62675101 -.00000361  00000+0  00000+0 0  9992
2 38049   5.6889  72.7417 0002115 125.5458  84.0593  1.00262162 45951
WGS F4 (USA 233)        
1 38070U 12003A   24208.08729931 -.00000216  00000+0  00000+0 0  9997
2 38070   0.0196  65.8104 0000267 161.8494 196.4352  1.00268389 37207
SES-4                   
1 38087U 12007A   24207.29632810 -.00000170  00000+0  00000+0 0  9999
2 38087   0.0276  52.3983 0002370  75.1240 260.6255  1.00271580 45283
BEIDOU-2 G5             
1 38091U 12008A   24208.52336368  .00000055  00000+0  00000+0 0  9992
2 38091   2.1690  71.1451 0003570 248.2158 232.3804  1.00270509 45550
MUOS-1                  
1 38093U 12009A   24208.50196028 -.00000131  00000+0  00000+0 0  9996
2 38093   4.1136  45.0520 0055364   3.7913 336.5641  1.00272235 45539
INTELSAT 22 (IS-22)     
1 38098U 12011A   24208.16832593 -.00000061  00000+0  00000+0 0  9992
2 38098   0.0085  33.9410 0001662  90.6290 312.4652  1.00270684   252
APSTAR-7                
1 38107U 12013A   24208.49216149 -.00000104  00000+0  00000+0 0  9992
2 38107   0.0140 112.2362 0002258  17.9583  68.1430  1.00271248 44884
YAHSAT 1B               
1 38245U 12016A   24207.23382498  .00000125  00000+0  00000+0 0  9992
2 38245   0.0307  92.3314 0003287  33.3403 309.5184  1.00268564 44989
AEHF-2 (USA 235)        
1 38254U 12019A   24208.49525537 -.00000258  00000+0  00000+0 0  9995
2 38254   5.0496  61.5205 0001958 114.8866 223.3416  1.00662861    50
JCSAT-13                
1 38331U 12023A   24208.63051666 -.00000358  00000+0  00000+0 0  9990
2 38331   0.0371 268.4512 0002737 229.6483 157.6825  1.00270890 44618
VINASAT-2               
1 38332U 12023B   24207.32159096 -.00000331  00000+0  00000+0 0  9993
2 38332   0.0409 283.1029 0002359 196.8881  71.1307  1.00269911 39728
NIMIQ 6                 
1 38342U 12026A   24208.20745074 -.00000175  00000+0  00000+0 0  9998
2 38342   0.0424 254.0258 0001996 230.5923 163.3355  1.00271651 43496
ZHONGXING-2A            
1 38352U 12028A   24208.62018881 -.00000295  00000+0  00000+0 0  9999
2 38352   0.0497 246.4975 0002444 121.2455 258.5641  1.00271071 44451
INTELSAT 19 (IS-19)     
1 38356U 12030A   24208.55808142 -.00000059  00000+0  00000+0 0  9993
2 38356   0.0193  63.8953 0003194  74.3704 173.3660  1.00271111 43519
ECHOSTAR 17             
1 38551U 12035A   24207.35105391 -.00000076  00000+0  00000+0 0  9997
2 38551   0.0196  65.7709 0002035  73.3742 183.6661  1.00267720 44127
METEOSAT-10 (MSG-3)     
1 38552U 12035B   24208.32549368 -.00000009  00000+0  00000+0 0  9998
2 38552   3.0511  61.2551 0000166 204.0486 156.4126  1.00273291 43920
SES-5                   
1 38652U 12036A   24208.31993657  .00000031  00000+0  00000+0 0  9997
2 38652   0.0709 288.2709 0002003 194.0806 302.2881  1.00268124 37559
INTELSAT 20 (IS-20)     
1 38740U 12043A   24208.16762976 -.00000027  00000+0  00000+0 0  9990
2 38740   0.0129  82.6716 0000601  91.7825 258.7247  1.00273877 43811
HYLAS 2                 
1 38741U 12043B   24208.58521734 -.00000265  00000+0  00000+0 0  9996
2 38741   0.6362  89.8349 0001413  71.0226 137.0817  1.00270338 43840
INTELSAT 21 (IS-21)     
1 38749U 12045A   24208.35327118 -.00000286  00000+0  00000+0 0  9994
2 38749   0.0167  66.2529 0001783  84.5050 222.9383  1.00267459 43592
ASTRA 2F                
1 38778U 12051A   24207.30096660  .00000148  00000+0  00000+0 0  9998
2 38778   0.1085 258.8549 0003369 285.8523 255.3423  1.00275824 34183
GSAT-10                 
1 38779U 12051B   24207.03452078 -.00000167  00000+0  00000+0 0  9990
2 38779   0.0626 259.4779 0000416 111.3978  27.7885  1.00270676 43164
INTELSAT 23 (IS-23)     
1 38867U 12057A   24206.30605045 -.00000286  00000+0  00000+0 0  9999
2 38867   0.0148 210.3427 0000635 188.9016 320.4697  1.00270705 42990
BEIDOU-2 G6             
1 38953U 12059A   24208.52847589 -.00000179  00000+0  00000+0 0  9995
2 38953   2.6572  80.2364 0008388 319.1136 179.5909  1.00273414 42981
LUCH-5B                 
1 38977U 12061A   24208.33105080 -.00000141  00000+0  00000+0 0  9995
2 38977   8.9719  56.3601 0005420 111.2755 239.7979  1.00270864 42677
YAMAL 300K              
1 38978U 12061B   24207.42272118  .00000067  00000+0  00000+0 0  9998
2 38978   0.0135  21.3153 0001076 212.9177  44.4954  1.00255615 42690
STAR ONE C3             
1 38991U 12062A   24208.49682178 -.00000251  00000+0  00000+0 0  9999
2 38991   0.0216  83.5559 0002401  62.5356 262.4260  1.00270399 42829
EUTELSAT 21B            
1 38992U 12062B   24208.51605378  .00000128  00000+0  00000+0 0  9992
2 38992   0.0671 353.6402 0002968 128.5089  29.9350  1.00268552 42900
ECHOSTAR 16             
1 39008U 12065A   24206.42454809 -.00000283  00000+0  00000+0 0  9996
2 39008   0.0176  65.8134 0001923  63.5962 264.5513  1.00269958 42674
ZHONGXING-12            
1 39017U 12067A   24208.61507221 -.00000208  00000+0  00000+0 0  9995
2 39017   0.0154 110.6819 0002782  20.2743 122.7172  1.00269472 42587
EUTELSAT 70B            
1 39020U 12069A   24208.52534309 -.00000045  00000+0  00000+0 0  9997
2 39020   0.0626 353.7990 0003517 133.1345  77.3691  1.00271269 42582
YAMAL 402               
1 39022U 12070A   24208.52266750  .00000084  00000+0  00000+0 0  9995
2 39022   0.0215 117.4108 0003688  14.3741  55.9528  1.00272117 42475
